EUTELSAT 21B            
1 38992U 12062B   25327.23283550  .00000151  00000+0  00000+0 0  9994
2 38992   0.0687 358.0662 0003296 255.7592 274.0694  1.00269568 47762
EUTELSAT 70B            
1 39020U 12069A   25327.17121514 -.00000023  00000+0  00000+0 0  9997
2 39020   0.0665  10.1682 0004474 226.1246 318.2549  1.00271779 47448
EUTELSAT 117 WEST A     
1 39122U 13012A   25327.30461184  .00000008  00000+0  00000+0 0  9996
2 39122   0.0137 338.7118 0002673 258.1158 178.5826  1.00271481 46369
EUTELSAT 7B             
1 39163U 13022A   25327.30130257  .00000069  00000+0  00000+0 0  9993
2 39163   0.0726  13.0746 0003643 301.6137 223.3209  1.00271133 45892
EXPRESS-AT1             
1 39612U 14010A   25327.16835512  .00000099  00000+0  00000+0 0  9993
2 39612   0.0168 290.5481 0000814 127.4843 121.0043  1.00272939 42751
EUTELSAT 3B             
1 39773U 14030A   25327.30052257  .00000041  00000+0  00000+0 0  9993
2 39773   0.0723  22.4143 0004431 199.4875 311.9422  1.00273378 42003
EUTELSAT 115 WEST B     
1 40425U 15010B   25327.20588198 -.00000002  00000+0  00000+0 0  9993
2 40425   0.0142 149.5040 0000751 168.3468  63.8125  1.00257523 39323
